[{"OBJECT_NAME":"ONEWEB-0339","OBJECT_ID":"2021-083V","EPOCH":"2025-10-03T13:24:39.796416","MEAN_MOTION":13.13470385,"ECCENTRICITY":0.00018861,"INCLINATION":87.9046,"RA_OF_ASC_NODE":11.2255,"ARG_OF_PERICENTER":105.4934,"MEAN_ANOMALY":254.6404,"EPHEMERIS_TYPE":0,"CLASSIFICATION_TYPE":"U","NORAD_CAT_ID":49205,"ELEMENT_SET_NO":999,"REV_AT_EPOCH":19720,"BSTAR":0.00084960092,"MEAN_MOTION_DOT":3.23e-6,"MEAN_MOTION_DDOT":0},{"OBJECT_NAME":"ONEWEB-0340","OBJECT_ID":"2021-083W","EPOCH":"2025-10-03T14:17:47.186592","MEAN_MOTION":13.18686181,"ECCENTRICITY":0.00018634,"INCLINATION":87.9219,"RA_OF_ASC_NODE":26.4029,"ARG_OF_PERICENTER":97.5352,"MEAN_ANOMALY":262.5992,"EPHEMERIS_TYPE":0,"CLASSIFICATION_TYPE":"U","NORAD_CAT_ID":49206,"ELEMENT_SET_NO":999,"REV_AT_EPOCH":19615,"BSTAR":0.00015690804,"MEAN_MOTION_DOT":7.5e-7,"MEAN_MOTION_DDOT":0},{"OBJECT_NAME":"ONEWEB-0341","OBJECT_ID":"2021-083X","EPOCH":"2025-10-03T14:27:16.977312","MEAN_MOTION":13.18686188,"ECCENTRICITY":0.00023661,"INCLINATION":87.922,"RA_OF_ASC_NODE":26.4146,"ARG_OF_PERICENTER":103.7041,"MEAN_ANOMALY":256.4355,"EPHEMERIS_TYPE":0,"CLASSIFICATION_TYPE":"U","NORAD_CAT_ID":49207,"ELEMENT_SET_NO":999,"REV_AT_EPOCH":19617,"BSTAR":0.00011145665,"MEAN_MOTION_DOT":5.7e-7,"MEAN_MOTION_DDOT":0},{"OBJECT_NAME":"ONEWEB-0342","OBJECT_ID":"2021-083Y","EPOCH":"2025-10-03T14:39:58.670208","MEAN_MOTION":13.20773196,"ECCENTRICITY":0.00018359,"INCLINATION":87.9238,"RA_OF_ASC_NODE":325.598,"ARG_OF_PERICENTER":99.8261,"MEAN_ANOMALY":260.308,"EPHEMERIS_TYPE":0,"CLASSIFICATION_TYPE":"U","NORAD_CAT_ID":49208,"ELEMENT_SET_NO":999,"REV_AT_EPOCH":20291,"BSTAR":-5.2023664e-5,"MEAN_MOTION_DOT":-8.0e-8,"MEAN_MOTION_DDOT":0},{"OBJECT_NAME":"ONEWEB-0343","OBJECT_ID":"2021-083Z","EPOCH":"2025-10-03T14:21:39.514464","MEAN_MOTION":13.18508841,"ECCENTRICITY":0.00024141,"INCLINATION":87.9216,"RA_OF_ASC_NODE":26.3999,"ARG_OF_PERICENTER":113.0427,"MEAN_ANOMALY":247.096,"EPHEMERIS_TYPE":0,"CLASSIFICATION_TYPE":"U","NORAD_CAT_ID":49209,"ELEMENT_SET_NO":999,"REV_AT_EPOCH":19622,"BSTAR":-0.052960523,"MEAN_MOTION_DOT":-0.00020765,"MEAN_MOTION_DDOT":0},{"OBJECT_NAME":"ONEWEB-0344","OBJECT_ID":"2021-083AA","EPOCH":"2025-10-03T05:58:33.603456","MEAN_MOTION":13.13470486,"ECCENTRICITY":0.00022887,"INCLINATION":87.9034,"RA_OF_ASC_NODE":11.3242,"ARG_OF_PERICENTER":102.3066,"MEAN_ANOMALY":257.8319,"EPHEMERIS_TYPE":0,"CLASSIFICATION_TYPE":"U","NORAD_CAT_ID":49210,"ELEMENT_SET_NO":999,"REV_AT_EPOCH":19716,"BSTAR":0.00076703558,"MEAN_MOTION_DOT":2.93e-6,"MEAN_MOTION_DDOT":0},{"OBJECT_NAME":"ONEWEB-0345","OBJECT_ID":"2021-083AB","EPOCH":"2025-10-04T12:51:12.390912","MEAN_MOTION":13.13470562,"ECCENTRICITY":0.0002242,"INCLINATION":87.9042,"RA_OF_ASC_NODE":11.0237,"ARG_OF_PERICENTER":103.4115,"MEAN_ANOMALY":256.7265,"EPHEMERIS_TYPE":0,"CLASSIFICATION_TYPE":"U","NORAD_CAT_ID":49211,"ELEMENT_SET_NO":999,"REV_AT_EPOCH":19734,"BSTAR":-0.00012989,"MEAN_MOTION_DOT":-3.5e-7,"MEAN_MOTION_DDOT":0},{"OBJECT_NAME":"ONEWEB-0346","OBJECT_ID":"2021-083AC","EPOCH":"2025-10-03T07:17:19.774176","MEAN_MOTION":13.18689551,"ECCENTRICITY":0.00018806,"INCLINATION":87.9219,"RA_OF_ASC_NODE":26.4817,"ARG_OF_PERICENTER":80.9645,"MEAN_ANOMALY":279.17,"EPHEMERIS_TYPE":0,"CLASSIFICATION_TYPE":"U","NORAD_CAT_ID":49212,"ELEMENT_SET_NO":999,"REV_AT_EPOCH":19612,"BSTAR":0.00013338289,"MEAN_MOTION_DOT":6.5e-7,"MEAN_MOTION_DDOT":0},{"OBJECT_NAME":"ONEWEB-0348","OBJECT_ID":"2021-083AD","EPOCH":"2025-10-03T12:37:14.860416","MEAN_MOTION":13.20773738,"ECCENTRICITY":0.00024602,"INCLINATION":87.9237,"RA_OF_ASC_NODE":325.6267,"ARG_OF_PERICENTER":88.6658,"MEAN_ANOMALY":271.4757,"EPHEMERIS_TYPE":0,"CLASSIFICATION_TYPE":"U","NORAD_CAT_ID":49213,"ELEMENT_SET_NO":999,"REV_AT_EPOCH":20293,"BSTAR":-1.8128674e-5,"MEAN_MOTION_DOT":6.0e-8,"MEAN_MOTION_DDOT":0},{"OBJECT_NAME":"ONEWEB-0350","OBJECT_ID":"2021-083AE","EPOCH":"2025-10-03T07:49:29.003232","MEAN_MOTION":13.13471245,"ECCENTRICITY":0.00021503,"INCLINATION":87.9051,"RA_OF_ASC_NODE":11.2581,"ARG_OF_PERICENTER":100.5397,"MEAN_ANOMALY":259.5974,"EPHEMERIS_TYPE":0,"CLASSIFICATION_TYPE":"U","NORAD_CAT_ID":49214,"ELEMENT_SET_NO":999,"REV_AT_EPOCH":19721,"BSTAR":0.00095279608,"MEAN_MOTION_DOT":3.61e-6,"MEAN_MOTION_DDOT":0},{"OBJECT_NAME":"ONEWEB-0351","OBJECT_ID":"2021-083AF","EPOCH":"2025-10-03T10:38:53.963232","MEAN_MOTION":13.2077167,"ECCENTRICITY":0.0002087,"INCLINATION":87.9246,"RA_OF_ASC_NODE":325.6327,"ARG_OF_PERICENTER":123.1234,"MEAN_ANOMALY":237.0099,"EPHEMERIS_TYPE":0,"CLASSIFICATION_TYPE":"U","NORAD_CAT_ID":49215,"ELEMENT_SET_NO":999,"REV_AT_EPOCH":20288,"BSTAR":-3.2826607e-5,"MEAN_MOTION_DOT":0,"MEAN_MOTION_DDOT":0},{"OBJECT_NAME":"ONEWEB-0352","OBJECT_ID":"2021-083AG","EPOCH":"2025-10-04T12:36:34.088256","MEAN_MOTION":13.134704,"ECCENTRICITY":0.0001871,"INCLINATION":87.9037,"RA_OF_ASC_NODE":11.0522,"ARG_OF_PERICENTER":115.3699,"MEAN_ANOMALY":244.7624,"EPHEMERIS_TYPE":0,"CLASSIFICATION_TYPE":"U","NORAD_CAT_ID":49216,"ELEMENT_SET_NO":999,"REV_AT_EPOCH":19746,"BSTAR":-0.0006905,"MEAN_MOTION_DOT":-2.39e-6,"MEAN_MOTION_DDOT":0},{"OBJECT_NAME":"ONEWEB-0354","OBJECT_ID":"2021-083AH","EPOCH":"2025-10-03T13:04:32.796192","MEAN_MOTION":13.2077184,"ECCENTRICITY":0.000225,"INCLINATION":87.9247,"RA_OF_ASC_NODE":325.6106,"ARG_OF_PERICENTER":95.1298,"MEAN_ANOMALY":265.0092,"EPHEMERIS_TYPE":0,"CLASSIFICATION_TYPE":"U","NORAD_CAT_ID":49217,"ELEMENT_SET_NO":999,"REV_AT_EPOCH":20293,"BSTAR":0.00024925272,"MEAN_MOTION_DOT":1.14e-6,"MEAN_MOTION_DDOT":0},{"OBJECT_NAME":"ONEWEB-0355","OBJECT_ID":"2021-083AJ","EPOCH":"2025-10-03T08:03:05.966208","MEAN_MOTION":13.13471346,"ECCENTRICITY":0.00020139,"INCLINATION":87.9049,"RA_OF_ASC_NODE":11.2969,"ARG_OF_PERICENTER":106.349,"MEAN_ANOMALY":253.7861,"EPHEMERIS_TYPE":0,"CLASSIFICATION_TYPE":"U","NORAD_CAT_ID":49218,"ELEMENT_SET_NO":999,"REV_AT_EPOCH":19718,"BSTAR":0.001123574,"MEAN_MOTION_DOT":4.23e-6,"MEAN_MOTION_DDOT":0},{"OBJECT_NAME":"ONEWEB-0357","OBJECT_ID":"2021-083AK","EPOCH":"2025-10-03T13:00:00.105696","MEAN_MOTION":13.20772644,"ECCENTRICITY":0.00019982,"INCLINATION":87.924,"RA_OF_ASC_NODE":325.6102,"ARG_OF_PERICENTER":100.8285,"MEAN_ANOMALY":259.3074,"EPHEMERIS_TYPE":0,"CLASSIFICATION_TYPE":"U","NORAD_CAT_ID":49219,"ELEMENT_SET_NO":999,"REV_AT_EPOCH":20293,"BSTAR":0.00023051445,"MEAN_MOTION_DOT":1.07e-6,"MEAN_MOTION_DDOT":0},{"OBJECT_NAME":"ONEWEB-0332","OBJECT_ID":"2021-090A","EPOCH":"2025-10-03T05:52:46.610688","MEAN_MOTION":13.1450124,"ECCENTRICITY":0.0001698,"INCLINATION":87.9062,"RA_OF_ASC_NODE":340.8956,"ARG_OF_PERICENTER":104.5133,"MEAN_ANOMALY":255.6185,"EPHEMERIS_TYPE":0,"CLASSIFICATION_TYPE":"U","NORAD_CAT_ID":49279,"ELEMENT_SET_NO":999,"REV_AT_EPOCH":19382,"BSTAR":0.00083300327,"MEAN_MOTION_DOT":3.22e-6,"MEAN_MOTION_DDOT":0},{"OBJECT_NAME":"ONEWEB-0347","OBJECT_ID":"2021-090B","EPOCH":"2025-10-03T12:46:20.713152","MEAN_MOTION":13.20772754,"ECCENTRICITY":0.00015508,"INCLINATION":87.9238,"RA_OF_ASC_NODE":325.6254,"ARG_OF_PERICENTER":96.155,"MEAN_ANOMALY":263.976,"EPHEMERIS_TYPE":0,"CLASSIFICATION_TYPE":"U","NORAD_CAT_ID":49280,"ELEMENT_SET_NO":999,"REV_AT_EPOCH":19716,"BSTAR":-3.7555156e-5,"MEAN_MOTION_DOT":-2.0e-8,"MEAN_MOTION_DDOT":0}]
