ONEWEB-0339             
1 49205U 21083V   25276.55879394  .00000323  00000+0  84960-3 0  9993
2 49205  87.9046  11.2255 0001886 105.4934 254.6404 13.13470385197200
ONEWEB-0340             
1 49206U 21083W   25276.59568503  .00000075  00000+0  15691-3 0  9994
2 49206  87.9219  26.4029 0001863  97.5352 262.5992 13.18686181196151
ONEWEB-0341             
1 49207U 21083X   25276.60227983  .00000057  00000+0  11146-3 0  9992
2 49207  87.9220  26.4146 0002366 103.7041 256.4355 13.18686188196172
ONEWEB-0342             
1 49208U 21083Y   25276.61109572 -.00000008  00000+0 -52024-4 0  9996
2 49208  87.9238 325.5980 0001835  99.8261 260.3080 13.20773196202918
ONEWEB-0343             
1 49209U 21083Z   25276.59837401 -.00020765  00000+0 -52961-1 0  9992
2 49209  87.9216  26.3999 0002414 113.0427 247.0960 13.18508841196223
ONEWEB-0344             
1 49210U 21083AA  25276.24900004  .00000293  00000+0  76704-3 0  9991
2 49210  87.9034  11.3242 0002288 102.3066 257.8319 13.13470486197166
ONEWEB-0345             
1 49211U 21083AB  25277.53556008 -.00000035  00000+0 -12989-3 0  9997
2 49211  87.9042  11.0237 0002242 103.4115 256.7265 13.13470562197347
ONEWEB-0346             
1 49212U 21083AC  25276.30370109  .00000065  00000+0  13338-3 0  9998
2 49212  87.9219  26.4817 0001880  80.9645 279.1700 13.18689551196125
ONEWEB-0348             
1 49213U 21083AD  25276.52586644  .00000006  00000+0 -18129-4 0  9996
2 49213  87.9237 325.6267 0002460  88.6658 271.4757 13.20773738202931
ONEWEB-0350             
1 49214U 21083AE  25276.32603013  .00000361  00000+0  95280-3 0  9990
2 49214  87.9051  11.2581 0002150 100.5397 259.5974 13.13471245197215
ONEWEB-0351             
1 49215U 21083AF  25276.44368013  .00000000  00000+0 -32827-4 0  9992
2 49215  87.9246 325.6327 0002087 123.1234 237.0099 13.20771670202884
ONEWEB-0352             
1 49216U 21083AG  25277.52539454 -.00000239  00000+0 -69050-3 0  9994
2 49216  87.9037  11.0522 0001871 115.3699 244.7624 13.13470400197469
ONEWEB-0354             
1 49217U 21083AH  25276.54482403  .00000114  00000+0  24925-3 0  9999
2 49217  87.9247 325.6106 0002250  95.1298 265.0092 13.20771840202931
ONEWEB-0355             
1 49218U 21083AJ  25276.33548572  .00000423  00000+0  11236-2 0  9990
2 49218  87.9049  11.2969 0002013 106.3490 253.7861 13.13471346197181
ONEWEB-0357             
1 49219U 21083AK  25276.54166789  .00000107  00000+0  23051-3 0  9998
2 49219  87.9240 325.6102 0001998 100.8285 259.3074 13.20772644202939
ONEWEB-0332             
1 49279U 21090A   25276.24498392  .00000322  00000+0  83300-3 0  9999
2 49279  87.9062 340.8956 0001698 104.5133 255.6185 13.14501240193827
ONEWEB-0347             
1 49280U 21090B   25276.53218418 -.00000002  00000+0 -37555-4 0  9991
2 49280  87.9238 325.6254 0001550  96.1550 263.9760 13.20772754197161
